{"type": "FeatureCollection", "features": [ {"type": "Feature", "properties": {"norad_id": 66890, "name": "STARLINK-35885", "group": "last-30-days", "lat": -43.979284257317154, "lon": -21.324537215041026, "alt_km": 353.5469004615461, "timestamp": "2025-12-22T11:33:19.156238+00:00", "meta": {"OBJECT_NAME": "STARLINK-35885", "OBJECT_ID": "2025-283N", "EPOCH": "2025-12-22T04:00:01.998720", "MEAN_MOTION": 15.74657676, "ECCENTRICITY": 7.89e-05, "INCLINATION": 53.1578, "RA_OF_ASC_NODE": 26.5857, "ARG_OF_PERICENTER": 134.8678, "MEAN_ANOMALY": 180.0743, "EPHEMERIS_TYPE": 0, "CLASSIFICATION_TYPE": "U", "NORAD_CAT_ID": 66890, "ELEMENT_SET_NO": 999, "REV_AT_EPOCH": 394, "BSTAR": -0.010827, "MEAN_MOTION_DOT": -0.01431852, "MEAN_MOTION_DDOT": 0}, "tle": {"line1": "1 66890U 25283N   25356.16668980 -.01431852  00000+0 -10827-1 0  9998", "line2": "2 66890  53.1578  26.5857 0000789 134.8678 180.0743 15.74657676  3947"}}, "geometry": {"type": "Point", "coordinates": [-21.324537215041026, -43.979284257317154]}}, {"type": "Feature", "properties": {"norad_id": 66891, "name": "STARLINK-35855", "group": "last-30-days", "lat": -42.86397693646208, "lon": -19.077644134736943, "alt_km": 353.97998870693755, "timestamp": "2025-12-22T11:33:19.156249+00:00", "meta": {"OBJECT_NAME": "STARLINK-35855", "OBJECT_ID": "2025-283P", "EPOCH": "2025-12-22T04:00:01.998720", "MEAN_MOTION": 15.74578931, "ECCENTRICITY": 0.0001038, "INCLINATION": 53.158, "RA_OF_ASC_NODE": 26.581, "ARG_OF_PERICENTER": 126.1683, "MEAN_ANOMALY": 190.8616, "EPHEMERIS_TYPE": 0, "CLASSIFICATION_TYPE": "U", "NORAD_CAT_ID": 66891, "ELEMENT_SET_NO": 999, "REV_AT_EPOCH": 394, "BSTAR": -0.011118, "MEAN_MOTION_DOT": -0.01461478, "MEAN_MOTION_DDOT": 0}, "tle": {"line1": "1 66891U 25283P   25356.16668980 -.01461478  00000+0 -11118-1 0  9990", "line2": "2 66891  53.1580  26.5810 0001038 126.1683 190.8616 15.74578931  3942"}}, "geometry": {"type": "Point", "coordinates": [-19.077644134736943, -42.86397693646208]}}, {"type": "Feature", "properties": {"norad_id": 66892, "name": "STARLINK-35883", "group": "last-30-days", "lat": -41.76063588118869, "lon": -17.0110178117094, "alt_km": 354.13047827614173, "timestamp": "2025-12-22T11:33:19.156259+00:00", "meta": {"OBJECT_NAME": "STARLINK-35883", "OBJECT_ID": "2025-283Q", "EPOCH": "2025-12-22T04:00:01.998720", "MEAN_MOTION": 15.74549487, "ECCENTRICITY": 0.0001464, "INCLINATION": 53.1579, "RA_OF_ASC_NODE": 26.5769, "ARG_OF_PERICENTER": 105.7281, "MEAN_ANOMALY": 213.2041, "EPHEMERIS_TYPE": 0, "CLASSIFICATION_TYPE": "U", "NORAD_CAT_ID": 66892, "ELEMENT_SET_NO": 999, "REV_AT_EPOCH": 388, "BSTAR": -0.010614, "MEAN_MOTION_DOT": -0.01401393, "MEAN_MOTION_DDOT": 0}, "tle": {"line1": "1 66892U 25283Q   25356.16668980 -.01401393  00000+0 -10614-1 0  9991", "line2": "2 66892  53.1579  26.5769 0001464 105.7281 213.2041 15.74549487  3883"}}, "geometry": {"type": "Point", "coordinates": [-17.0110178117094, -41.76063588118869]}}, {"type": "Feature", "properties": {"norad_id": 66893, "name": "STARLINK-36033", "group": "last-30-days", "lat": -40.60662352444298, "lon": -14.989792359118898, "alt_km": 353.55128900376803, "timestamp": "2025-12-22T11:33:19.156269+00:00", "meta": {"OBJECT_NAME": "STARLINK-36033", "OBJECT_ID": "2025-283R", "EPOCH": "2025-12-22T04:00:01.998720", "MEAN_MOTION": 15.74558494, "ECCENTRICITY": 9.7e-05, "INCLINATION": 53.158, "RA_OF_ASC_NODE": 26.5731, "ARG_OF_PERICENTER": 77.275, "MEAN_ANOMALY": 243.5671, "EPHEMERIS_TYPE": 0, "CLASSIFICATION_TYPE": "U", "NORAD_CAT_ID": 66893, "ELEMENT_SET_NO": 999, "REV_AT_EPOCH": 394, "BSTAR": -0.010658, "MEAN_MOTION_DOT": -0.01406746, "MEAN_MOTION_DDOT": 0}, "tle": {"line1": "1 66893U 25283R   25356.16668980 -.01406746  00000+0 -10658-1 0  9997", "line2": "2 66893  53.1580  26.5731 0000970  77.2750 243.5671 15.74558494  3940"}}, "geometry": {"type": "Point", "coordinates": [-14.989792359118898, -40.60662352444298]}}, {"type": "Feature", "properties": {"norad_id": 66894, "name": "STARLINK-35718", "group": "last-30-days", "lat": -39.416716937783406, "lon": -13.035915461940299, "alt_km": 353.688780672499, "timestamp": "2025-12-22T11:33:19.156279+00:00", "meta": {"OBJECT_NAME": "STARLINK-35718", "OBJECT_ID": "2025-283S", "EPOCH": "2025-12-22T04:00:01.998720", "MEAN_MOTION": 15.74550938, "ECCENTRICITY": 0.0001108, "INCLINATION": 53.1578, "RA_OF_ASC_NODE": 26.5694, "ARG_OF_PERICENTER": 91.6429, "MEAN_ANOMALY": 231.1193, "EPHEMERIS_TYPE": 0, "CLASSIFICATION_TYPE": "U", "NORAD_CAT_ID": 66894, "ELEMENT_SET_NO": 999, "REV_AT_EPOCH": 394, "BSTAR": -0.010581, "MEAN_MOTION_DOT": -0.01397397, "MEAN_MOTION_DDOT": 0}, "tle": {"line1": "1 66894U 25283S   25356.16668980 -.01397397  00000+0 -10581-1 0  9994", "line2": "2 66894  53.1578  26.5694 0001108  91.6429 231.1193 15.74550938  3940"}}, "geometry": {"type": "Point", "coordinates": [-13.035915461940299, -39.416716937783406]}}, {"type": "Feature", "properties": {"norad_id": 66895, "name": "STARLINK-35971", "group": "last-30-days", "lat": -36.91866325379043, "lon": -9.288644882662938, "alt_km": 353.4943416912256, "timestamp": "2025-12-22T11:33:19.156291+00:00", "meta": {"OBJECT_NAME": "STARLINK-35971", "OBJECT_ID": "2025-283T", "EPOCH": "2025-12-22T04:00:01.998720", "MEAN_MOTION": 15.74655541, "ECCENTRICITY": 0.0001191, "INCLINATION": 53.1582, "RA_OF_ASC_NODE": 26.5604, "ARG_OF_PERICENTER": 71.8337, "MEAN_ANOMALY": 254.7631, "EPHEMERIS_TYPE": 0, "CLASSIFICATION_TYPE": "U", "NORAD_CAT_ID": 66895, "ELEMENT_SET_NO": 999, "REV_AT_EPOCH": 394, "BSTAR": -0.012004, "MEAN_MOTION_DOT": -0.01598275, "MEAN_MOTION_DDOT": 0}, "tle": {"line1": "1 66895U 25283T   25356.16668980 -.01598275  00000+0 -12004-1 0  9995", "line2": "2 66895  53.1582  26.5604 0001191  71.8337 254.7631 15.74655541  3941"}}, "geometry": {"type": "Point", "coordinates": [-9.288644882662938, -36.91866325379043]}}, {"type": "Feature", "properties": {"norad_id": 66896, "name": "STARLINK-35791", "group": "last-30-days", "lat": -38.193057964990615, "lon": -11.146193056254273, "alt_km": 353.1910241138148, "timestamp": "2025-12-22T11:33:19.156313+00:00", "meta": {"OBJECT_NAME": "STARLINK-35791", "OBJECT_ID": "2025-283U", "EPOCH": "2025-12-22T04:00:01.998720", "MEAN_MOTION": 15.74565218, "ECCENTRICITY": 5.6e-05, "INCLINATION": 53.158, "RA_OF_ASC_NODE": 26.5644, "ARG_OF_PERICENTER": 69.1335, "MEAN_ANOMALY": 255.5415, "EPHEMERIS_TYPE": 0, "CLASSIFICATION_TYPE": "U", "NORAD_CAT_ID": 66896, "ELEMENT_SET_NO": 999, "REV_AT_EPOCH": 394, "BSTAR": -0.010772, "MEAN_MOTION_DOT": -0.01420254, "MEAN_MOTION_DDOT": 0}, "tle": {"line1": "1 66896U 25283U   25356.16668980 -.01420254  00000+0 -10772-1 0  9997", "line2": "2 66896  53.1580  26.5644 0000560  69.1335 255.5415 15.74565218  3941"}}, "geometry": {"type": "Point", "coordinates": [-11.146193056254273, -38.193057964990615]}}, {"type": "Feature", "properties": {"norad_id": 66897, "name": "STARLINK-36079", "group": "last-30-days", "lat": -35.64859215728821, "lon": -7.537109741856361, "alt_km": 353.5860848065031, "timestamp": "2025-12-22T11:33:19.156324+00:00", "meta": {"OBJECT_NAME": "STARLINK-36079", "OBJECT_ID": "2025-283V", "EPOCH": "2025-12-22T04:00:01.998720", "MEAN_MOTION": 15.74575741, "ECCENTRICITY": 0.0001352, "INCLINATION": 53.1579, "RA_OF_ASC_NODE": 26.5564, "ARG_OF_PERICENTER": 81.7074, "MEAN_ANOMALY": 246.842, "EPHEMERIS_TYPE": 0, "CLASSIFICATION_TYPE": "U", "NORAD_CAT_ID": 66897, "ELEMENT_SET_NO": 999, "REV_AT_EPOCH": 394, "BSTAR": -0.011226, "MEAN_MOTION_DOT": -0.01473958, "MEAN_MOTION_DDOT": 0}, "tle": {"line1": "1 66897U 25283V   25356.16668980 -.01473958  00000+0 -11226-1 0  9992", "line2": "2 66897  53.1579  26.5564 0001352  81.7074 246.8420 15.74575741  3942"}}, "geometry": {"type": "Point", "coordinates": [-7.537109741856361, -35.64859215728821]}}, {"type": "Feature", "properties": {"norad_id": 66898, "name": "STARLINK-36065", "group": "last-30-days", "lat": -34.3491001990436, "lon": -5.834840798563707, "alt_km": 353.4299258314186, "timestamp": "2025-12-22T11:33:19.156339+00:00", "meta": {"OBJECT_NAME": "STARLINK-36065", "OBJECT_ID": "2025-283W", "EPOCH": "2025-12-22T04:00:01.998720", "MEAN_MOTION": 15.74581035, "ECCENTRICITY": 0.0001113, "INCLINATION": 53.158, "RA_OF_ASC_NODE": 26.5521, "ARG_OF_PERICENTER": 91.243, "MEAN_ANOMALY": 239.2031, "EPHEMERIS_TYPE": 0, "CLASSIFICATION_TYPE": "U", "NORAD_CAT_ID": 66898, "ELEMENT_SET_NO": 999, "REV_AT_EPOCH": 394, "BSTAR": -0.011123, "MEAN_MOTION_DOT": -0.01462232, "MEAN_MOTION_DDOT": 0}, "tle": {"line1": "1 66898U 25283W   25356.16668980 -.01462232  00000+0 -11123-1 0  9992", "line2": "2 66898  53.1580  26.5521 0001113  91.2430 239.2031 15.74581035  3942"}}, "geometry": {"type": "Point", "coordinates": [-5.834840798563707, -34.3491001990436]}}, {"type": "Feature", "properties": {"norad_id": 66899, "name": "STARLINK-36064", "group": "last-30-days", "lat": -33.02119029269239, "lon": -4.178333777698444, "alt_km": 353.11601626275115, "timestamp": "2025-12-22T11:33:19.156349+00:00", "meta": {"OBJECT_NAME": "STARLINK-36064", "OBJECT_ID": "2025-283X", "EPOCH": "2025-12-22T04:00:01.998720", "MEAN_MOTION": 15.74578348, "ECCENTRICITY": 9.23e-05, "INCLINATION": 53.158, "RA_OF_ASC_NODE": 26.548, "ARG_OF_PERICENTER": 75.4944, "MEAN_ANOMALY": 256.8794, "EPHEMERIS_TYPE": 0, "CLASSIFICATION_TYPE": "U", "NORAD_CAT_ID": 66899, "ELEMENT_SET_NO": 999, "REV_AT_EPOCH": 388, "BSTAR": -0.011225, "MEAN_MOTION_DOT": -0.0147378, "MEAN_MOTION_DDOT": 0}, "tle": {"line1": "1 66899U 25283X   25356.16668980 -.01473780  00000+0 -11225-1 0  9996", "line2": "2 66899  53.1580  26.5480 0000923  75.4944 256.8794 15.74578348  3886"}}, "geometry": {"type": "Point", "coordinates": [-4.178333777698444, -33.02119029269239]}}]}